start=new Date('2022-08-05T00:00:00.000Z').valueOf();
sats=[{"ELEMENT_SET_NO":"999","FILE":"3529274","TLE_LINE1":"1 44758U 19074AX  22216.61119165  .00000759  00000-0  69818-4 0  9999","PERIOD":"95.592","OBJECT_NAME":"STARLINK-1053","PERIAPSIS":"546.419","REV_AT_EPOCH":"15028","COUNTRY_CODE":"US","RA_OF_ASC_NODE":"1.3447","MEAN_MOTION_DDOT":"0.0000000000000","ECCENTRICITY":"0.00011250","LAUNCH_DATE":"2019-11-11","SITE":"AFETR","MEAN_ELEMENT_THEORY":"SGP4","TLE_LINE2":"2 44758  53.0558   1.3447 0001125  97.9750 262.1367 15.06404986150287","NORAD_CAT_ID":"44758","CENTER_NAME":"EARTH","EPHEMERIS_TYPE":"0","APOAPSIS":"547.977","DECAY_DATE":null,"MEAN_MOTION_DOT":"0.00000759","MEAN_MOTION":"15.06404986","ARG_OF_PERICENTER":"97.9750","MEAN_ANOMALY":"262.1367","EPOCH":"2022-08-04T14:40:06.958560","SEMIMAJOR_AXIS":"6925.333","TIME_SYSTEM":"UTC","RCS_SIZE":"LARGE","GP_ID":"209587194","INCLINATION":"53.0558","CLASSIFICATION_TYPE":"U","OBJECT_TYPE":"PAYLOAD","BSTAR":"0.00006981800000","REF_FRAME":"TEME","OBJECT_ID":"2019-074AX"},{"TIME_SYSTEM":"UTC","SEMIMAJOR_AXIS":"6925.338","EPOCH":"2022-08-04T19:00:11.101824","MEAN_ANOMALY":"260.8065","ARG_OF_PERICENTER":"99.3066","MEAN_MOTION":"15.06403325","OBJECT_ID":"2019-074AY","REF_FRAME":"TEME","BSTAR":"0.00004972800000","OBJECT_TYPE":"PAYLOAD","CLASSIFICATION_TYPE":"U","INCLINATION":"53.0563","GP_ID":"209587942","RCS_SIZE":"LARGE","RA_OF_ASC_NODE":"0.4428","COUNTRY_CODE":"US","REV_AT_EPOCH":"14795","PERIAPSIS":"546.333","OBJECT_NAME":"STARLINK-1054","PERIOD":"95.592","TLE_LINE1":"1 44759U 19074AY  22216.79179516  .00000459  00000-0  49728-4 0  9990","FILE":"3529274","ELEMENT_SET_NO":"999","MEAN_MOTION_DOT":"0.00000459","APOAPSIS":"548.074","DECAY_DATE":null,"EPHEMERIS_TYPE":"0","CENTER_NAME":"EARTH","NORAD_CAT_ID":"44759","TLE_LINE2":"2 44759  53.0563   0.4428 0001257  99.3066 260.8065 15.06403325147951","MEAN_ELEMENT_THEORY":"SGP4","SITE":"AFETR","ECCENTRICITY":"0.00012570","LAUNCH_DATE":"2019-11-11","MEAN_MOTION_DDOT":"0.0000000000000"},{"RA_OF_ASC_NODE":"0.5247","OBJECT_NAME":"STARLINK-1055","PERIAPSIS":"546.280","COUNTRY_CODE":"US","REV_AT_EPOCH":"15048","FILE":"3529166","TLE_LINE1":"1 44760U 19074AZ  22216.77705844 -.00001659  00000-0 -92507-4 0  9997","PERIOD":"95.592","ELEMENT_SET_NO":"999","CENTER_NAME":"EARTH","EPHEMERIS_TYPE":"0","DECAY_DATE":null,"APOAPSIS":"548.150","MEAN_MOTION_DOT":"-0.00001659","NORAD_CAT_ID":"44760","LAUNCH_DATE":"2019-11-11","ECCENTRICITY":"0.00013500","SITE":"AFETR","MEAN_ELEMENT_THEORY":"SGP4","TLE_LINE2":"2 44760  53.0559   0.5247 0001350  84.8560 275.2583 15.06399538150487","MEAN_MOTION_DDOT":"0.0000000000000","EPOCH":"2022-08-04T18:38:57.849216","MEAN_ANOMALY":"275.2583","SEMIMAJOR_AXIS":"6925.350","TIME_SYSTEM":"UTC","MEAN_MOTION":"15.06399538","ARG_OF_PERICENTER":"84.8560","OBJECT_ID":"2019-074AZ","REF_FRAME":"TEME","CLASSIFICATION_TYPE":"U","INCLINATION":"53.0559","OBJECT_TYPE":"PAYLOAD","BSTAR":"-0.00009250700000","RCS_SIZE":"LARGE","GP_ID":"209565319"},{"OBJECT_NAME":"STARLINK-1056","COUNTRY_CODE":"US","REV_AT_EPOCH":"15031","PERIAPSIS":"546.262","RA_OF_ASC_NODE":"0.4705","ELEMENT_SET_NO":"999","TLE_LINE1":"1 44761U 19074BA  22216.78811755  .00000455  00000-0  49417-4 0  9991","FILE":"3529274","PERIOD":"95.593","NORAD_CAT_ID":"44761","EPHEMERIS_TYPE":"0","CENTER_NAME":"EARTH","MEAN_MOTION_DOT":"0.00000455","APOAPSIS":"548.212","DECAY_DATE":null,"MEAN_MOTION_DDOT":"0.0000000000000","SITE":"AFETR","LAUNCH_DATE":"2019-11-11","ECCENTRICITY":"0.00014080","TLE_LINE2":"2 44761  53.0576   0.4705 0001408  86.9949 273.1201 15.06392291150318","MEAN_ELEMENT_THEORY":"SGP4","MEAN_ANOMALY":"273.1201","EPOCH":"2022-08-04T18:54:53.356320","SEMIMAJOR_AXIS":"6925.372","TIME_SYSTEM":"UTC","MEAN_MOTION":"15.06392291","ARG_OF_PERICENTER":"86.9949","INCLINATION":"53.0576","CLASSIFICATION_TYPE":"U","BSTAR":"0.00004941700000","OBJECT_TYPE":"PAYLOAD","OBJECT_ID":"2019-074BA","REF_FRAME":"TEME","GP_ID":"209586443","RCS_SIZE":"LARGE"},{"GP_ID":"209587694","RCS_SIZE":"LARGE","OBJECT_ID":"2019-074BB","REF_FRAME":"TEME","BSTAR":"0.00017482000000","OBJECT_TYPE":"PAYLOAD","CLASSIFICATION_TYPE":"U","INCLINATION":"53.0564","ARG_OF_PERICENTER":"100.3665","MEAN_MOTION":"15.06397834","TIME_SYSTEM":"UTC","SEMIMAJOR_AXIS":"6925.355","MEAN_ANOMALY":"259.7492","EPOCH":"2022-08-04T18:57:31.784544","TLE_LINE2":"2 44762  53.0564 340.4636 0001486 100.3665 259.7492 15.06397834150756","MEAN_ELEMENT_THEORY":"SGP4","SITE":"AFETR","ECCENTRICITY":"0.00014860","LAUNCH_DATE":"2019-11-11","MEAN_MOTION_DDOT":"0.0000000000000","MEAN_MOTION_DOT":"0.00002323","APOAPSIS":"548.249","DECAY_DATE":null,"EPHEMERIS_TYPE":"0","CENTER_NAME":"EARTH","NORAD_CAT_ID":"44762","PERIOD":"95.592","TLE_LINE1":"1 44762U 19074BB  22216.78995121  .00002323  00000-0  17482-3 0  9994","FILE":"3529274","ELEMENT_SET_NO":"999","RA_OF_ASC_NODE":"340.4636","COUNTRY_CODE":"US","REV_AT_EPOCH":"15075","PERIAPSIS":"546.191","OBJECT_NAME":"STARLINK-1057"},{"NORAD_CAT_ID":"44763","DECAY_DATE":null,"APOAPSIS":"548.060","MEAN_MOTION_DOT":"0.00001778","CENTER_NAME":"EARTH","EPHEMERIS_TYPE":"0","MEAN_MOTION_DDOT":"0.0000000000000","MEAN_ELEMENT_THEORY":"SGP4","TLE_LINE2":"2 44763  53.0543   0.0569 0001230  85.7846 274.3284 15.06401822150320","LAUNCH_DATE":"2019-11-11","ECCENTRICITY":"0.00012300","SITE":"AFETR","PERIAPSIS":"546.356","REV_AT_EPOCH":"15032","COUNTRY_CODE":"US","OBJECT_NAME":"STARLINK-1058","RA_OF_ASC_NODE":"0.0569","ELEMENT_SET_NO":"999","PERIOD":"95.592","FILE":"3529274","TLE_LINE1":"1 44763U 19074BC  22216.87562469  .00001778  00000-0  13819-3 0  9993","OBJECT_TYPE":"PAYLOAD","BSTAR":"0.00013819000000","CLASSIFICATION_TYPE":"U","INCLINATION":"53.0543","REF_FRAME":"TEME","OBJECT_ID":"2019-074BC","RCS_SIZE":"LARGE","GP_ID":"209587444","SEMIMAJOR_AXIS":"6925.343","TIME_SYSTEM":"UTC","MEAN_ANOMALY":"274.3284","EPOCH":"2022-08-04T21:00:53.973216","ARG_OF_PERICENTER":"85.7846","MEAN_MOTION":"15.06401822"},{"EPOCH":"2022-08-04T18:22:41.205216","MEAN_ANOMALY":"214.5413","TIME_SYSTEM":"UTC","SEMIMAJOR_AXIS":"6921.744","MEAN_MOTION":"15.07576949","ARG_OF_PERICENTER":"145.5700","REF_FRAME":"TEME","OBJECT_ID":"2019-074BD","INCLINATION":"53.0565","CLASSIFICATION_TYPE":"U","BSTAR":"0.00180280000000","OBJECT_TYPE":"PAYLOAD","GP_ID":"209586193","RCS_SIZE":"LARGE","RA_OF_ASC_NODE":"340.3667","OBJECT_NAME":"STARLINK-1059","COUNTRY_CODE":"US","REV_AT_EPOCH":"15058","PERIAPSIS":"542.296","TLE_LINE1":"1 44764U 19074BD  22216.76575469  .00027547  00000-0  18028-2 0  9994","FILE":"3529274","PERIOD":"95.518","ELEMENT_SET_NO":"999","EPHEMERIS_TYPE":"0","CENTER_NAME":"EARTH","MEAN_MOTION_DOT":"0.00027547","APOAPSIS":"544.922","DECAY_DATE":null,"NORAD_CAT_ID":"44764","SITE":"AFETR","LAUNCH_DATE":"2019-11-11","ECCENTRICITY":"0.00018970","TLE_LINE2":"2 44764  53.0565 340.3667 0001897 145.5700 214.5413 15.07576949150589","MEAN_ELEMENT_THEORY":"SGP4","MEAN_MOTION_DDOT":"0.0000000000000"},{"INCLINATION":"53.0573","CLASSIFICATION_TYPE":"U","OBJECT_TYPE":"PAYLOAD","BSTAR":"0.00005987700000","REF_FRAME":"TEME","OBJECT_ID":"2019-074BE","RCS_SIZE":"LARGE","GP_ID":"209586943","EPOCH":"2022-08-04T14:32:08.714688","MEAN_ANOMALY":"272.8674","TIME_SYSTEM":"UTC","SEMIMAJOR_AXIS":"6925.339","MEAN_MOTION":"15.06403223","ARG_OF_PERICENTER":"87.2475","NORAD_CAT_ID":"44765","CENTER_NAME":"EARTH","EPHEMERIS_TYPE":"0","DECAY_DATE":null,"APOAPSIS":"548.177","MEAN_MOTION_DOT":"0.00000611","MEAN_MOTION_DDOT":"0.0000000000000","ECCENTRICITY":"0.00014060","LAUNCH_DATE":"2019-11-11","SITE":"AFETR","MEAN_ELEMENT_THEORY":"SGP4","TLE_LINE2":"2 44765  53.0573 341.2813 0001406  87.2475 272.8674 15.06403223150555","OBJECT_NAME":"STARLINK-1060","PERIAPSIS":"546.230","REV_AT_EPOCH":"15055","COUNTRY_CODE":"US","RA_OF_ASC_NODE":"341.2813","ELEMENT_SET_NO":"999","FILE":"3529274","TLE_LINE1":"1 44765U 19074BE  22216.60565642  .00000611  00000-0  59877-4 0  9992","PERIOD":"95.592"},{"NORAD_CAT_ID":"44766","APOAPSIS":"548.076","DECAY_DATE":null,"MEAN_MOTION_DOT":"0.00001134","CENTER_NAME":"EARTH","EPHEMERIS_TYPE":"0","MEAN_MOTION_DDOT":"0.0000000000000","MEAN_ELEMENT_THEORY":"SGP4","TLE_LINE2":"2 44766  53.0553   0.4092 0001261 104.5516 255.5613 15.06403609150318","LAUNCH_DATE":"2019-11-11","ECCENTRICITY":"0.00012610","SITE":"AFETR","PERIAPSIS":"546.329","COUNTRY_CODE":"US","REV_AT_EPOCH":"15031","OBJECT_NAME":"STARLINK-1061","RA_OF_ASC_NODE":"0.4092","ELEMENT_SET_NO":"999","PERIOD":"95.592","FILE":"3529274","TLE_LINE1":"1 44766U 19074BF  22216.80284982  .00001134  00000-0  95005-4 0  9994","OBJECT_TYPE":"PAYLOAD","BSTAR":"0.00009500500000","INCLINATION":"53.0553","CLASSIFICATION_TYPE":"U","REF_FRAME":"TEME","OBJECT_ID":"2019-074BF","RCS_SIZE":"LARGE","GP_ID":"209587195","TIME_SYSTEM":"UTC","SEMIMAJOR_AXIS":"6925.337","MEAN_ANOMALY":"255.5613","EPOCH":"2022-08-04T19:16:06.224448","ARG_OF_PERICENTER":"104.5516","MEAN_MOTION":"15.06403609"},{"GP_ID":"209557240","RCS_SIZE":"LARGE","CLASSIFICATION_TYPE":"U","INCLINATION":"53.0564","BSTAR":"0.00010342000000","OBJECT_TYPE":"PAYLOAD","REF_FRAME":"TEME","OBJECT_ID":"2019-074BG","MEAN_MOTION":"15.06405408","ARG_OF_PERICENTER":"79.0746","MEAN_ANOMALY":"281.0378","EPOCH":"2022-08-04T12:41:57.937056","TIME_SYSTEM":"UTC","SEMIMAJOR_AXIS":"6925.332","MEAN_MOTION_DDOT":"0.0000000000000","SITE":"AFETR","LAUNCH_DATE":"2019-11-11","ECCENTRICITY":"0.00012030","TLE_LINE2":"2 44767  53.0564   1.6232 0001203  79.0746 281.0378 15.06405408150273","MEAN_ELEMENT_THEORY":"SGP4","NORAD_CAT_ID":"44767","EPHEMERIS_TYPE":"0","CENTER_NAME":"EARTH","MEAN_MOTION_DOT":"0.00001260","APOAPSIS":"548.030","DECAY_DATE":null,"ELEMENT_SET_NO":"999","TLE_LINE1":"1 44767U 19074BG  22216.52914279  .00001260  00000-0  10342-3 0  9993","FILE":"3529060","PERIOD":"95.592","OBJECT_NAME":"STARLINK-1062","COUNTRY_CODE":"US","REV_AT_EPOCH":"15027","PERIAPSIS":"546.364","RA_OF_ASC_NODE":"1.6232"}];
